STARLINK-1457
1 45674U 20035T   26090.91671296  .00275293  00000+0  10846-2 0  9992
2 45674  53.0427 270.5862 0003706 172.5869 243.6483 15.85582946  6046
STARLINK-1680
1 46558U 20070AC  26090.83335647  .00271061  00000+0  11008-2 0  9991
2 46558  53.0389 358.3413 0005073 122.2332 191.2612 15.84955493  6028
STARLINK-1799
1 46699U 20073AF  26090.83335647  .00333775  00000+0  13250-2 0  9992
2 46699  53.0435  84.2180 0004047   9.0787 243.8818 15.85276513  6020
